GPS BIIR-2  (PRN 13)    
1 24876U 97035A   17084.80454529  .00000006  00000-0  00000-0 0  9994
2 24876  55.5721 230.3911 0037451 106.5651 253.8057  2.00561943144354
GPS BIIR-3  (PRN 11)    
1 25933U 99055A   17084.67290948  .00000020  00000-0  00000-0 0  9997
2 25933  51.5766  81.2958 0163981  93.2712 101.0857  2.00559396127976
GPS BIIR-4  (PRN 20)    
1 26360U 00025A   17084.77688278  .00000019  00000-0  00000-0 0  9997
2 26360  53.1021 158.3696 0042320  90.1932 281.0289  2.00565814123674
GPS BIIR-5  (PRN 28)    
1 26407U 00040A   17084.79785052 -.00000054  00000-0  00000-0 0  9996
2 26407  56.6550 348.3997 0200781 269.9898  37.5511  2.00567381122346
GPS BIIR-6  (PRN 14)    
1 26605U 00071A   17084.95336142  .00000003  00000-0  00000-0 0  9993
2 26605  55.1431 228.1490 0090423 248.1966  79.7600  2.00567854119940
GPS BIIR-7  (PRN 18)    
1 26690U 01004A   17084.83833124  .00000016  00000-0  00000-0 0  9997
2 26690  53.0252 161.3135 0180522 255.8636 101.1227  2.00554086118346
GPS BIIR-8  (PRN 16)    
1 27663U 03005A   17084.34276486 -.00000056  00000-0  00000-0 0  9994
2 27663  56.7251 348.1518 0092046  22.6495  75.7991  2.00564739103694
GPS BIIR-9  (PRN 21)    
1 27704U 03010A   17084.95047434  .00000049  00000-0  00000-0 0  9993
2 27704  53.8097 101.6753 0242023 263.0769 233.9447  2.00558518102518
GPS BIIR-10 (PRN 22)    
1 28129U 03058A   17084.49697317  .00000012  00000-0  00000-0 0  9997
2 28129  52.9115 161.3272 0077450 258.3142 100.8723  2.00576596 97183
GPS BIIR-11 (PRN 19)    
1 28190U 04009A   17084.80307043 -.00000027  00000-0  00000-0 0  9998
2 28190  55.9612  49.2175 0100326  52.7515 169.8511  2.00565802 95389
GPS BIIR-12 (PRN 23)    
1 28361U 04023A   17084.69210105 -.00000002  00000-0  00000-0 0  9996
2 28361  54.1258 223.3564 0115695 218.3121 197.3645  2.00551139 93448
GPS BIIR-13 (PRN 02)    
1 28474U 04045A   17084.81566285  .00000050  00000-0  00000-0 0  9994
2 28474  54.1911 101.1177 0169475 245.6582 259.3677  2.00553697 90836
GPS BIIRM-1 (PRN 17)    
1 28874U 05038A   17084.80108753 -.00000031  00000-0  00000-0 0  9992
2 28874  56.1197  46.4678 0118897 254.0979 347.2626  2.00572426 84230
GPS BIIRM-2 (PRN 31)    
1 29486U 06042A   17084.85128699  .00000024  00000-0  00000-0 0  9995
2 29486  55.4520 285.6200 0085591 343.2032 217.3149  2.00563905 76831
GPS BIIRM-3 (PRN 12)    
1 29601U 06052A   17084.51695139 -.00000054  00000-0  00000-0 0  9990
2 29601  56.6974 347.0654 0064186  45.4534 315.1077  2.00577092 75802
GPS BIIRM-4 (PRN 15)    
1 32260U 07047A   17084.33854065 -.00000005  00000-0  00000-0 0  9991
2 32260  53.2523 219.7934 0089798  31.9577 328.5436  2.00552178 69245
GPS BIIRM-5 (PRN 29)    
1 32384U 07062A   17084.41273204 -.00000029  00000-0  00000-0 0  9990
2 32384  56.1819  47.0594 0007391 341.7615 207.0197  2.00566044 67969
GPS BIIRM-6 (PRN 07)    
1 32711U 08012A   17084.24015951  .00000026  00000-0  00000-0 0  9990
2 32711  55.1795 285.0330 0103341 211.5197 147.8857  2.00554492 66145
GPS BIIRM-8 (PRN 05)    
1 35752U 09043A   17084.34922913  .00000011  00000-0  00000-0 0  9993
2 35752  54.2419 162.9168 0047903  28.9136  73.2895  2.00559061 55736
GPS BIIF-1  (PRN 25)    
1 36585U 10022A   17084.93295501 -.00000050  00000-0  00000-0 0  9992
2 36585  56.0081 343.9253 0061997  42.9450 223.7728  2.00570810 49999
GPS BIIF-2  (PRN 01)    
1 37753U 11036A   17084.67460132  .00000055  00000-0  00000-0 0  9995
2 37753  55.3996 104.1047 0062634  28.7298 139.1016  2.00561696 41672
GPS BIIF-3  (PRN 24)    
1 38833U 12053A   17084.93049876  .00000021  00000-0  00000-0 0  9995
2 38833  54.2078 282.0048 0055192  25.2802 335.0115  2.00560497 31957
GPS BIIF-4  (PRN 27)    
1 39166U 13023A   17084.28586009 -.00000036  00000-0  00000-0 0  9992
2 39166  55.8276  43.5304 0045254  14.3004 345.8141  2.00565296 28271
GPS BIIF-5  (PRN 30)    
1 39533U 14008A   17084.78884649  .00000019  00000-0  00000-0 0  9990
2 39533  54.3624 287.2934 0025551 179.8848 180.1466  2.00560379 22100
GPS BIIF-6  (PRN 06)    
1 39741U 14026A   17084.56668020  .00000055  00000-0  00000-0 0  9990
2 39741  55.3873 103.6287 0009968 284.3359  75.6192  2.00567407 20935
GPS BIIF-7  (PRN 09)    
1 40105U 14045A   17084.65994493 -.00000001  00000-0  00000-0 0  9995
2 40105  54.6483 223.2197 0006574 110.2109 249.8195  2.00564088 18509
GPS BIIF-8  (PRN 03)    
1 40294U 14068A   17084.52878386  .00000014  00000-0  00000-0 0  9990
2 40294  54.9882 163.8251 0005268 346.5016  13.5375  2.00551648 17608
GPS BIIF-9  (PRN 26)    
1 40534U 15013A   17084.16806925 -.00000054  00000-0  00000-0 0  9993
2 40534  54.9659 343.1364 0018040 353.5220   6.4970  2.00563535 14216
GPS BIIF-10  (PRN 08)   
1 40730U 15033A   17083.83049649 -.00000037  00000-0  00000-0 0  9999
2 40730  55.3622  43.2578 0027510 311.7830  47.9715  2.00571573 12394
GPS BIIF-11  (PRN 10)   
1 41019U 15062A   17084.38163147  .00000012  00000-0  00000-0 0  9995
2 41019  54.9985 163.6154 0024439 203.1964 156.7458  2.00563291 10229
GPS BIIF-12  (PRN 32)   
1 41328U 16007A   17084.46698364 -.00000000  00000-0  00000-0 0  9999
2 41328  54.9069 223.3923 0010438 215.0257 144.8658  2.00559350  8288
COSMOS 2419 (714)       
1 28915U 05050A   17084.64436282  .00000033  00000-0  00000-0 0  9996
2 28915  65.4564  68.6650 0017032 345.9721  82.4422  2.13110346 87550
COSMOS 2425 (716)       
1 29670U 06062A   17084.46470919  .00000031  00000-0  10000-3 0  9996
2 29670  65.5018 307.6854 0022547 350.1508 353.8494  2.13104971 79747
COSMOS 2426 (717)       
1 29671U 06062B   17084.59866938  .00000031  00000-0  10000-3 0  9991
2 29671  65.5176 307.7681 0016008 159.3138 146.3852  2.13102964 79759
COSMOS 2424 (715)       
1 29672U 06062C   17084.64484068  .00000031  00000-0  10000-3 0  9998
2 29672  65.5029 307.6912 0015552 157.5715 359.0633  2.13102132 79754
COSMOS 2433 (720)       
1 32275U 07052A   17084.73074797  .00000033  00000-0  10000-3 0  9997
2 32275  65.4721  68.4394 0005144 283.3975  96.8864  2.13104813 73274
COSMOS 2432 (719)       
1 32276U 07052B   17084.60125057  .00000033  00000-0  10000-3 0  9990
2 32276  65.4838  68.5140 0013893 329.1481 264.8428  2.13104101 73267
COSMOS 2434 (721)       
1 32393U 07065A   17084.80796517  .00000031  00000-0  00000-0 0  9995
2 32393  65.1181 306.8627 0005000  86.6538 242.8921  2.13102830 71979
COSMOS 2436 (723)       
1 32395U 07065C   17084.74031898  .00000031  00000-0  10000-3 0  9998
2 32395  65.1285 306.9096 0016570   4.4054 321.5135  2.13104226 71908
COSMOS 2443 (725)       
1 33379U 08046B   17084.72651115  .00000031  00000-0  00000-0 0  9995
2 33379  65.4020  67.8301 0015788 188.2415  90.4395  2.13101890 66127
COSMOS 2456 (730)       
1 36111U 09070A   17084.67336140  .00000004  00000-0  00000-0 0  9992
2 36111  64.1800 186.4318 0003860 322.0396  75.0411  2.13102811 56644
COSMOS 2457 (733)       
1 36112U 09070B   17084.55628653  .00000003  00000-0  00000-0 0  9992
2 36112  64.1617 186.3560 0006558 163.2720 272.9456  2.13101526 56641
COSMOS 2458 (734)       
1 36113U 09070C   17084.48641579  .00000003  00000-0  10000-3 0  9991
2 36113  64.1668 186.3666 0001591  29.5816  40.8810  2.13102089 56648
COSMOS 2459 (731)       
1 36400U 10007A   17084.53874363  .00000031  00000-0  10000-3 0  9998
2 36400  65.3811  67.5626 0029472 348.2423 107.5176  2.13102288 54992
COSMOS 2461 (735)       
1 36401U 10007B   17084.65490760  .00000031  00000-0  10000-3 0  9997
2 36401  65.3733  67.5361 0005235  42.3110  53.1575  2.13102307 54999
COSMOS 2460 (732)       
1 36402U 10007C   17084.64778594  .00000031  00000-0  10000-3 0  9991
2 36402  65.3643  67.5105 0002850 305.5283 185.9208  2.13101799 54992
COSMOS 2465 (737)       
1 37138U 10041B   17084.91752917  .00000029  00000-0  00000-0 0  9990
2 37138  64.7156 306.8889 0034121 169.8094 287.8261  2.13104505 51071
COSMOS 2464 (736)       
1 37139U 10041C   17084.69899410  .00000030  00000-0  00000-0 0  9998
2 37139  64.7240 306.8957 0024856  14.2446  99.4408  2.13102598 51069
COSMOS 2471 (701K)      
1 37372U 11009A   17084.41184322  .00000032  00000-0  00000-0 0  9993
2 37372  65.3611  67.4676 0009051 246.0435 198.7718  2.13107741 47267
COSMOS 2474 (742)       
1 37829U 11055A   17084.65580808  .00000004  00000-0  00000-0 0  9995
2 37829  64.5035 186.9622 0007750 248.3838 355.3890  2.13101878 42632
COSMOS 2476 (744)       
1 37867U 11064A   17084.59065259  .00000004  00000-0  00000-0 0  9998
2 37867  64.4837 187.0378 0016954 243.3060 356.3978  2.13101971 41980
COSMOS 2477 (745)       
1 37868U 11064B   17084.62092355  .00000004  00000-0  00000-0 0  9990
2 37868  64.4914 187.0810 0014728 244.4178 197.6842  2.13101751 41945
COSMOS 2475 (743)       
1 37869U 11064C   17084.65282578  .00000004  00000-0  00000-0 0  9992
2 37869  64.4997 187.0695 0019610 272.3872 150.5388  2.13101843 41950
COSMOS 2485 (747)       
1 39155U 13019A   17084.72595238  .00000005  00000-0  00000-0 0  9993
2 39155  64.6532 187.0449 0017265 237.6549 150.9025  2.13101960 30469
COSMOS 2492 (754)       
1 39620U 14012A   17084.66259521  .00000030  00000-0  10000-3 0  9991
2 39620  65.2537  67.4592 0017501 327.0212  46.8988  2.13103478 23416
COSMOS 2500 (755)       
1 40001U 14032A   17084.48536509  .00000031  00000-0  00000-0 0  9999
2 40001  65.1944  67.4681 0006366 233.2610 227.8886  2.13102861 21622
COSMOS 2501 (702K)      
1 40315U 14075A   17084.75695608  .00000027  00000-0  00000-0 0  9995
2 40315  64.4516 308.2642 0013412 208.4621 268.2169  2.13098504 18038
COSMOS 2514 (751)       
1 41330U 16008A   17084.66093781  .00000030  00000-0  00000-0 0  9999
2 41330  64.9943  67.6267 0009850 232.9756 182.6482  2.13103426  8795
COSMOS 2516 (753)       
1 41554U 16032A   17084.26870896  .00000028  00000-0  00000-0 0  9997
2 41554  64.6695 308.0225 0009570 223.8891 143.8902  2.13101590  6398
